{"type": "FeatureCollection", "features": [{"type": "Feature", "properties": {"norad_id": 28054, "name": "DMSP 5D-3 F16 (USA 172)", "group": "weather", "lat": -36.860843390909, "lon": 178.00155996040647, "alt_km": 851.5135944369604, "timestamp": "2025-12-13T08:49:15.336250+00:00", "meta": {"OBJECT_NAME": "DMSP 5D-3 F16 (USA 172)", "OBJECT_ID": "2003-048A", "EPOCH": "2025-12-13T01:06:39.006720", "MEAN_MOTION": 14.14424303, "ECCENTRICITY": 0.00064903, "INCLINATION": 99.0047, "RA_OF_ASC_NODE": 4.5057, "ARG_OF_PERICENTER": 319.9597, "MEAN_ANOMALY": 62.5213, "EPHEMERIS_TYPE": 0, "CLASSIFICATION_TYPE": "U", "NORAD_CAT_ID": 28054, "ELEMENT_SET_NO": 999, "REV_AT_EPOCH": 14317, "BSTAR": 0.00013231216, "MEAN_MOTION_DOT": 2.08e-06, "MEAN_MOTION_DDOT": 0}, "tle": {"line1": "1 28054U 03048A   25347.04628480  .00000208  00000+0  13231-3 0  9999", "line2": "2 28054  99.0047   4.5057 0006490 319.9597  62.5213 14.14424303143174"}}, "geometry": {"type": "Point", "coordinates": [178.00155996040647, -36.860843390909]}}, {"type": "Feature", "properties": {"norad_id": 28912, "name": "METEOSAT-9 (MSG-2)", "group": "weather", "lat": -3.6899192710980704, "lon": -99.94747086407747, "alt_km": 35770.48012465649, "timestamp": "2025-12-13T08:49:15.336299+00:00", "meta": {"OBJECT_NAME": "METEOSAT-9 (MSG-2)", "OBJECT_ID": "2005-049B", "EPOCH": "2025-12-12T20:32:45.552192", "MEAN_MOTION": 1.00276669, "ECCENTRICITY": 0.00035766, "INCLINATION": 8.9401, "RA_OF_ASC_NODE": 55.9765, "ARG_OF_PERICENTER": 190.0838, "MEAN_ANOMALY": 189.6047, "EPHEMERIS_TYPE": 0, "CLASSIFICATION_TYPE": "U", "NORAD_CAT_ID": 28912, "ELEMENT_SET_NO": 999, "REV_AT_EPOCH": 513, "BSTAR": 0, "MEAN_MOTION_DOT": 1.32e-06, "MEAN_MOTION_DDOT": 0}, "tle": {"line1": "1 28912U 05049B   25346.85608278  .00000132  00000+0  00000+0 0  9998", "line2": "2 28912   8.9401  55.9765 0003576 190.0838 189.6047  1.00276669  5134"}}, "geometry": {"type": "Point", "coordinates": [-99.94747086407747, -3.6899192710980704]}}, {"type": "Feature", "properties": {"norad_id": 29522, "name": "DMSP 5D-3 F17 (USA 191)", "group": "weather", "lat": 20.87921932967722, "lon": 176.10732641460237, "alt_km": 839.4737411940787, "timestamp": "2025-12-13T08:49:15.336317+00:00", "meta": {"OBJECT_NAME": "DMSP 5D-3 F17 (USA 191)", "OBJECT_ID": "2006-050A", "EPOCH": "2025-12-12T23:35:11.144832", "MEAN_MOTION": 14.14919687, "ECCENTRICITY": 0.00094223, "INCLINATION": 98.7394, "RA_OF_ASC_NODE": 352.3668, "ARG_OF_PERICENTER": 224.0774, "MEAN_ANOMALY": 135.9649, "EPHEMERIS_TYPE": 0, "CLASSIFICATION_TYPE": "U", "NORAD_CAT_ID": 29522, "ELEMENT_SET_NO": 999, "REV_AT_EPOCH": 98608, "BSTAR": 0.00016176488, "MEAN_MOTION_DOT": 2.69e-06, "MEAN_MOTION_DDOT": 0}, "tle": {"line1": "1 29522U 06050A   25346.98276788  .00000269  00000+0  16176-3 0  9996", "line2": "2 29522  98.7394 352.3668 0009422 224.0774 135.9649 14.14919687986086"}}, "geometry": {"type": "Point", "coordinates": [176.10732641460237, 20.87921932967722]}}, {"type": "Feature", "properties": {"norad_id": 32958, "name": "FENGYUN 3A", "group": "weather", "lat": -61.94485417381952, "lon": 90.24478774927475, "alt_km": 831.7527857672876, "timestamp": "2025-12-13T08:49:15.336348+00:00", "meta": {"OBJECT_NAME": "FENGYUN 3A", "OBJECT_ID": "2008-026A", "EPOCH": "2025-12-12T19:50:11.184576", "MEAN_MOTION": 14.19514788, "ECCENTRICITY": 0.000791, "INCLINATION": 98.6698, "RA_OF_ASC_NODE": 286.3515, "ARG_OF_PERICENTER": 310.0338, "MEAN_ANOMALY": 50.0144, "EPHEMERIS_TYPE": 0, "CLASSIFICATION_TYPE": "U", "NORAD_CAT_ID": 32958, "ELEMENT_SET_NO": 999, "REV_AT_EPOCH": 90896, "BSTAR": 0.00012017926, "MEAN_MOTION_DOT": 2.1e-06, "MEAN_MOTION_DDOT": 0}, "tle": {"line1": "1 32958U 08026A   25346.82651834  .00000210  00000+0  12018-3 0  9997", "line2": "2 32958  98.6698 286.3515 0007910 310.0338  50.0144 14.19514788908964"}}, "geometry": {"type": "Point", "coordinates": [90.24478774927475, -61.94485417381952]}}, {"type": "Feature", "properties": {"norad_id": 35491, "name": "GOES 14", "group": "weather", "lat": 0.4089018314565897, "lon": 104.44793186091077, "alt_km": 35837.97957611969, "timestamp": "2025-12-13T08:49:15.336363+00:00", "meta": {"OBJECT_NAME": "GOES 14", "OBJECT_ID": "2009-033A", "EPOCH": "2025-12-12T23:13:46.003584", "MEAN_MOTION": 1.00096095, "ECCENTRICITY": 7.598e-05, "INCLINATION": 1.2034, "RA_OF_ASC_NODE": 85.3926, "ARG_OF_PERICENTER": 163.8223, "MEAN_ANOMALY": 71.235, "EPHEMERIS_TYPE": 0, "CLASSIFICATION_TYPE": "U", "NORAD_CAT_ID": 35491, "ELEMENT_SET_NO": 999, "REV_AT_EPOCH": 472, "BSTAR": 0, "MEAN_MOTION_DOT": -1.9e-07, "MEAN_MOTION_DDOT": 0}, "tle": {"line1": "1 35491U 09033A   25346.96789356 -.00000019  00000+0  00000+0 0  9999", "line2": "2 35491   1.2034  85.3926 0000759 163.8223  71.2350  1.00096095  4724"}}, "geometry": {"type": "Point", "coordinates": [104.44793186091077, 0.4089018314565897]}}, {"type": "Feature", "properties": {"norad_id": 35951, "name": "DMSP 5D-3 F18 (USA 210)", "group": "weather", "lat": 25.410423664864876, "lon": -40.49584450789649, "alt_km": 835.1137155846191, "timestamp": "2025-12-13T08:49:15.336376+00:00", "meta": {"OBJECT_NAME": "DMSP 5D-3 F18 (USA 210)", "OBJECT_ID": "2009-057A", "EPOCH": "2025-12-12T22:30:56.947104", "MEAN_MOTION": 14.14769269, "ECCENTRICITY": 0.00120424, "INCLINATION": 98.8835, "RA_OF_ASC_NODE": 323.3379, "ARG_OF_PERICENTER": 62.2303, "MEAN_ANOMALY": 298.009, "EPHEMERIS_TYPE": 0, "CLASSIFICATION_TYPE": "U", "NORAD_CAT_ID": 35951, "ELEMENT_SET_NO": 999, "REV_AT_EPOCH": 83325, "BSTAR": 0.00021930326, "MEAN_MOTION_DOT": 3.78e-06, "MEAN_MOTION_DDOT": 0}, "tle": {"line1": "1 35951U 09057A   25346.93815911  .00000378  00000+0  21930-3 0  9996", "line2": "2 35951  98.8835 323.3379 0012042  62.2303 298.0090 14.14769269833259"}}, "geometry": {"type": "Point", "coordinates": [-40.49584450789649, 25.410423664864876]}}, {"type": "Feature", "properties": {"norad_id": 36411, "name": "EWS-G2 (GOES 15)", "group": "weather", "lat": -0.15818096375282317, "lon": -83.97264938093498, "alt_km": 35763.2747196332, "timestamp": "2025-12-13T08:49:15.336390+00:00", "meta": {"OBJECT_NAME": "EWS-G2 (GOES 15)", "OBJECT_ID": "2010-008A", "EPOCH": "2025-12-12T22:19:55.396992", "MEAN_MOTION": 1.00269872, "ECCENTRICITY": 0.0005713, "INCLINATION": 0.8146, "RA_OF_ASC_NODE": 86.0682, "ARG_OF_PERICENTER": 174.731, "MEAN_ANOMALY": 217.4571, "EPHEMERIS_TYPE": 0, "CLASSIFICATION_TYPE": "U", "NORAD_CAT_ID": 36411, "ELEMENT_SET_NO": 999, "REV_AT_EPOCH": 5777, "BSTAR": 0, "MEAN_MOTION_DOT": 5.1e-07, "MEAN_MOTION_DDOT": 0}, "tle": {"line1": "1 36411U 10008A   25346.93050228  .00000051  00000+0  00000+0 0  9997", "line2": "2 36411   0.8146  86.0682 0005713 174.7310 217.4571  1.00269872 57773"}}, "geometry": {"type": "Point", "coordinates": [-83.97264938093498, -0.15818096375282317]}}, {"type": "Feature", "properties": {"norad_id": 36744, "name": "COMS 1", "group": "weather", "lat": -4.324780889546604, "lon": -17.243149118638026, "alt_km": 35786.58155717374, "timestamp": "2025-12-13T08:49:15.336402+00:00", "meta": {"OBJECT_NAME": "COMS 1", "OBJECT_ID": "2010-032A", "EPOCH": "2025-12-12T15:21:38.695680", "MEAN_MOTION": 1.0026781, "ECCENTRICITY": 7.129e-05, "INCLINATION": 4.3408, "RA_OF_ASC_NODE": 78.0019, "ARG_OF_PERICENTER": 200.2431, "MEAN_ANOMALY": 161.9119, "EPHEMERIS_TYPE": 0, "CLASSIFICATION_TYPE": "U", "NORAD_CAT_ID": 36744, "ELEMENT_SET_NO": 999, "REV_AT_EPOCH": 4922, "BSTAR": 0, "MEAN_MOTION_DOT": -3.34e-06, "MEAN_MOTION_DDOT": 0}, "tle": {"line1": "1 36744U 10032A   25346.64003120 -.00000334  00000+0  00000+0 0  9995", "line2": "2 36744   4.3408  78.0019 0000712 200.2431 161.9119  1.00267810 49222"}}, "geometry": {"type": "Point", "coordinates": [-17.243149118638026, -4.324780889546604]}}, {"type": "Feature", "properties": {"norad_id": 37214, "name": "FENGYUN 3B", "group": "weather", "lat": -9.486981637840325, "lon": 28.864885813951513, "alt_km": 831.221522965945, "timestamp": "2025-12-13T08:49:15.336414+00:00", "meta": {"OBJECT_NAME": "FENGYUN 3B", "OBJECT_ID": "2010-059A", "EPOCH": "2025-12-13T00:53:24.160416", "MEAN_MOTION": 14.14790654, "ECCENTRICITY": 0.00220484, "INCLINATION": 98.9909, "RA_OF_ASC_NODE": 27.0161, "ARG_OF_PERICENTER": 356.9666, "MEAN_ANOMALY": 111.4241, "EPHEMERIS_TYPE": 0, "CLASSIFICATION_TYPE": "U", "NORAD_CAT_ID": 37214, "ELEMENT_SET_NO": 999, "REV_AT_EPOCH": 78110, "BSTAR": 0.00017710493, "MEAN_MOTION_DOT": 2.97e-06, "MEAN_MOTION_DDOT": 0}, "tle": {"line1": "1 37214U 10059A   25347.03708519  .00000297  00000+0  17710-3 0  9992", "line2": "2 37214  98.9909  27.0161 0022048 356.9666 111.4241 14.14790654781109"}}, "geometry": {"type": "Point", "coordinates": [28.864885813951513, -9.486981637840325]}}, {"type": "Feature", "properties": {"norad_id": 37849, "name": "SUOMI NPP", "group": "weather", "lat": -21.844763574183474, "lon": 101.15241028996059, "alt_km": 832.0764021643108, "timestamp": "2025-12-13T08:49:15.336426+00:00", "meta": {"OBJECT_NAME": "SUOMI NPP", "OBJECT_ID": "2011-061A", "EPOCH": "2025-12-12T23:24:50.834304", "MEAN_MOTION": 14.19514309, "ECCENTRICITY": 0.00022553, "INCLINATION": 98.7773, "RA_OF_ASC_NODE": 284.315, "ARG_OF_PERICENTER": 119.9127, "MEAN_ANOMALY": 240.2274, "EPHEMERIS_TYPE": 0, "CLASSIFICATION_TYPE": "U", "NORAD_CAT_ID": 37849, "ELEMENT_SET_NO": 999, "REV_AT_EPOCH": 73202, "BSTAR": 9.8690097e-05, "MEAN_MOTION_DOT": 1.64e-06, "MEAN_MOTION_DDOT": 0}, "tle": {"line1": "1 37849U 11061A   25346.97558836  .00000164  00000+0  98690-4 0  9997", "line2": "2 37849  98.7773 284.3150 0002255 119.9127 240.2274 14.19514309732023"}}, "geometry": {"type": "Point", "coordinates": [101.15241028996059, -21.844763574183474]}}]}